*******************************************************************************
 Revised: July 31, 2013             Moon / (Earth)                          301
 
 GEOPHYSICAL DATA (updated 2018-Aug-15):
  Vol. mean radius, km  = 1737.53+-0.03    Mass, x10^22 kg       =    7.349
  Radius (gravity), km  = 1738.0           Surface emissivity    =    0.92
  Radius (IAU), km      = 1737.4           GM, km^3/s^2          = 4902.800066
  Density, g/cm^3       =    3.3437        GM 1-sigma, km^3/s^2  =  +-0.0001  
  V(1,0)                =   +0.21          Surface accel., m/s^2 =    1.62
  Earth/Moon mass ratio = 81.3005690769    Farside crust. thick. = ~80 - 90 km
  Mean crustal density  = 2.97+-.07 g/cm^3 Nearside crust. thick.= 58+-8 km 
  Heat flow, Apollo 15  = 3.1+-.6 mW/m^2   Mean angular diameter = 31'05.2"
  Heat flow, Apollo 17  = 2.2+-.5 mW/m^2   Sid. rot. rate, rad/s = 0.0000026617
  Geometric Albedo      = 0.12             Mean solar day        = 29.5306 d
  Obliquity to orbit    = 6.67 deg         Orbit period          = 27.321582 d
  Semi-major axis, a    = 384400 km        Eccentricity          = 0.05490
  Mean motion, rad/s    = 2.6616995x10^-6  Inclination           = 5.145 deg
  Apsidal period        = 3231.50 d        Nodal period          = 6798.38 d
                                 Perihelion  Aphelion    Mean
  Solar Constant (W/m^2)         1414+-7     1323+-7     1368+-7
  Maximum Planetary IR (W/m^2)   1314        1226        1268
  Minimum Planetary IR (W/m^2)      5.2         5.2         5.2
********************************************************************************


*******************************************************************************
Ephemeris / WWW_USER Sat Nov 13 16:52:37 2021 Pasadena, USA      / Horizons
*******************************************************************************
Target body name: Moon (301)                      {source: DE441}
Center body name: Earth (399)                     {source: DE441}
Center-site name: BODY CENTER
*******************************************************************************
Start time      : A.D. 1970-Jan-01 00:00:00.0000 TDB
Stop  time      : A.D. 2040-Jan-01 00:00:00.0000 TDB
Step-size       : 11520 minutes
*******************************************************************************
Center geodetic : 0.00000000,0.00000000,0.0000000 {E-lon(deg),Lat(deg),Alt(km)}
Center cylindric: 0.00000000,0.00000000,0.0000000 {E-lon(deg),Dxy(km),Dz(km)}
Center radii    : 6378.1 x 6378.1 x 6356.8 km     {Equator, meridian, pole}    
Output units    : AU-D
Output type     : GEOMETRIC cartesian states
Output format   : 2 (position and velocity)
EOP file        : eop.211111.p220204
EOP coverage    : DATA-BASED 1962-JAN-20 TO 2021-NOV-11. PREDICTS-> 2022-FEB-03
Reference frame : ICRF
*******************************************************************************
JDTDB
   X     Y     Z
   VX    VY    VZ
*******************************************************************************
$$SOE
2455435.500000000 = A.D. 2010-Aug-27 00:00:00.0000 TDB 
 X = 2.698128883935195E-03 Y =-1.610749022781246E-04 Z = 1.864377258839502E-04
 VX= 6.106222641525903E-06 VY= 5.113666778745627E-04 VZ= 2.320916111455080E-04
2455443.500000000 = A.D. 2010-Sep-04 00:00:00.0000 TDB 
 X =-4.192902489799503E-04 Y = 2.245501677492996E-03 Z = 9.741139020502633E-04
 VX=-5.910307556548426E-04 VY=-1.071850112566357E-04 VZ=-1.053301404175285E-04
2455451.500000000 = A.D. 2010-Sep-12 00:00:00.0000 TDB 
 X =-1.926890257699006E-03 Y =-1.335893459913970E-03 Z =-7.855769341228536E-04
 VX= 3.498078036318904E-04 VY=-4.710010140548196E-04 VZ=-1.784887721979619E-04
2455459.500000000 = A.D. 2010-Sep-20 00:00:00.0000 TDB 
 X = 2.068211360259719E-03 Y =-1.662936698900366E-03 Z =-5.502055787410087E-04
 VX= 3.644498521513303E-04 VY= 3.741822044916589E-04 VZ= 2.028639854244095E-04
2455467.500000000 = A.D. 2010-Sep-28 00:00:00.0000 TDB 
 X = 1.442362411180240E-03 Y = 1.946431966585023E-03 Z = 1.006903469050885E-03
 VX=-4.940801808070457E-04 VY= 2.886604899837462E-04 VZ= 8.176301420129929E-05
2455475.500000000 = A.D. 2010-Oct-06 00:00:00.0000 TDB 
 X =-2.338080324381447E-03 Y = 5.614423903662765E-04 Z = 2.747882461117858E-05
 VX=-1.306691742051875E-04 VY=-5.596270534019149E-04 VZ=-2.619234846608691E-04
2455483.500000000 = A.D. 2010-Oct-14 00:00:00.0000 TDB 
 X = 4.658144626283779E-04 Y =-2.377228649003572E-03 Z =-1.011181106756928E-03
 VX= 5.693963116761481E-04 VY= 4.185005860980989E-05 VZ= 7.342540048043852E-05
2455491.500000000 = A.D. 2010-Oct-22 00:00:00.0000 TDB 
 X = 2.563609715577269E-03 Y = 5.951661943147009E-04 Z = 5.093097050350072E-04
 VX=-1.740367037776837E-04 VY= 5.011488761096139E-04 VZ= 2.051402753922894E-04
2455499.500000000 = A.D. 2010-Oct-30 00:00:00.0000 TDB 
 X =-1.231371021019328E-03 Y = 2.037489332558546E-03 Z = 7.796162621967724E-04
 VX=-5.109900871044663E-04 VY=-2.725051314619448E-04 VZ=-1.700655914371924E-04
2455507.500000000 = A.D. 2010-Nov-07 00:00:00.0000 TDB 
 X =-1.426300388547718E-03 Y =-1.805172556600045E-03 Z =-9.338664464122181E-04
 VX= 4.823144562182892E-04 VY=-3.621931811693743E-04 VZ=-1.123270679926302E-04
2455515.500000000 = A.D. 2010-Nov-15 00:00:00.0000 TDB 
 X = 2.472529866067748E-03 Y =-1.070253823754332E-03 Z =-2.270699861299465E-04
 VX= 2.239594398763145E-04 VY= 4.593167052237930E-04 VZ= 2.242203756622827E-04
2455523.500000000 = A.D. 2010-Nov-23 00:00:00.0000 TDB 
 X = 6.285001831558392E-04 Y = 2.252168187598734E-03 Z = 1.050665495639074E-03
 VX=-5.792885948228604E-04 VY= 1.349068867418071E-04 VZ= 1.674510496151522E-06
2455531.500000000 = A.D. 2010-Dec-01 00:00:00.0000 TDB 
 X =-2.441936241449193E-03 Y =-1.786112846189230E-04 Z =-3.223296539989522E-04
 VX= 7.155507476471767E-05 VY=-5.601741297050242E-04 VZ=-2.386913375910479E-04
2455539.500000000 = A.D. 2010-Dec-09 00:00:00.0000 TDB 
 X = 1.149025102105219E-03 Y =-2.206809777285831E-03 Z =-8.520471167531872E-04
 VX= 5.291497762488183E-04 VY= 1.883565647642340E-04 VZ= 1.358240076450456E-04
2455547.500000000 = A.D. 2010-Dec-17 00:00:00.0000 TDB 
 X = 2.226630550655926E-03 Y = 1.217632943220315E-03 Z = 7.583787450019339E-04
 VX=-3.281513739468091E-04 VY= 4.406231592171140E-04 VZ= 1.601695575640489E-04
2455555.500000000 = A.D. 2010-Dec-25 00:00:00.0000 TDB 
 X =-1.903020042357132E-03 Y = 1.494645834424689E-03 Z = 4.633186182674664E-04
 VX=-3.846387849273247E-04 VY=-4.247091857964557E-04 VZ=-2.250468458821091E-04
2455563.500000000 = A.D. 2011-Jan-02 00:00:00.0000 TDB 
 X =-7.689773910342104E-04 Y =-2.202600265443565E-03 Z =-1.043476637039472E-03
 VX= 5.587990823404284E-04 VY=-2.037989015340865E-04 VZ=-3.302710501884417E-05
2455571.500000000 = A.D. 2011-Jan-10 00:00:00.0000 TDB 
 X = 2.671077162755991E-03 Y =-4.316304636566256E-04 Z = 7.894749189528378E-05
 VX= 7.655893749397117E-05 VY= 5.036120251516397E-04 VZ= 2.283639442123071E-04
2455579.500000000 = A.D. 2011-Jan-18 00:00:00.0000 TDB 
 X =-1.061979735772115E-04 Y = 2.293270054591267E-03 Z = 9.944840793708149E-04
 VX=-6.028319760582730E-04 VY=-3.348753122188610E-05 VZ=-7.495205197349048E-05
2455587.500000000 = A.D. 2011-Jan-26 00:00:00.0000 TDB 
 X =-2.176961552062025E-03 Y =-1.004514230865108E-03 Z =-6.558669080210278E-04
 VX= 2.661719833024816E-04 VY=-5.101800065208124E-04 VZ=-1.967597156528065E-04
2455595.500000000 = A.D. 2011-Feb-03 00:00:00.0000 TDB 
 X = 1.801507269464871E-03 Y =-1.868830045702863E-03 Z =-6.402387324907131E-04
 VX= 4.301082742630071E-04 VY= 3.263722169246263E-04 VZ= 1.849785690924989E-04
2455603.500000000 = A.D. 2011-Feb-11 00:00:00.0000 TDB 
 X = 1.762214223068446E-03 Y = 1.750061618557507E-03 Z = 9.350196086774274E-04
 VX=-4.416212005026065E-04 VY= 3.425191637260596E-04 VZ= 1.059882707158131E-04
2455611.500000000 = A.D. 2011-Feb-19 00:00:00.0000 TDB 
 X =-2.227393104373201E-03 Y = 8.662113352500167E-04 Z = 1.613881925880978E-04
 VX=-2.229459190942381E-04 VY=-5.366021571038934E-04 VZ=-2.549938565207553E-04
2455619.500000000 = A.D. 2011-Feb-27 00:00:00.0000 TDB 
 X = 1.001554010574519E-04 Y =-2.391405756949896E-03 Z =-1.028160125892481E-03
 VX= 5.786574729053791E-04 VY=-2.785955355561699E-05 VZ= 4.387791578134581E-05
2455627.500000000 = A.D. 2011-Mar-07 00:00:00.0000 TDB 
 X = 2.672589934285177E-03 Y = 3.002726080575875E-04 Z = 3.844325268210061E-04
 VX=-9.119479354693122E-05 VY= 5.106591435443915E-04 VZ= 2.117992199837134E-04
2455635.500000000 = A.D. 2011-Mar-15 00:00:00.0000 TDB 
 X =-7.959030043895144E-04 Y = 2.212359357508862E-03 Z = 8.764706767016485E-04
 VX=-5.551560705294548E-04 VY=-1.929505374111880E-04 VZ=-1.362911009330859E-04
2455643.500000000 = A.D. 2011-Mar-23 00:00:00.0000 TDB 
 X =-1.650615352327202E-03 Y =-1.597011803268539E-03 Z =-8.421360145202295E-04
 VX= 4.297708742456079E-04 VY=-4.240647697836656E-04 VZ=-1.407541409774195E-04
2455651.500000000 = A.D. 2011-Mar-31 00:00:00.0000 TDB 
 X = 2.346377497614039E-03 Y =-1.301834515403103E-03 Z =-3.335106606780343E-04
 VX= 2.855468870023313E-04 VY= 4.340063007634178E-04 VZ= 2.129296646289615E-04
2455659.500000000 = A.D. 2011-Apr-08 00:00:00.0000 TDB 
 X = 1.064662371580906E-03 Y = 2.194428927930155E-03 Z = 1.035388163613041E-03
 VX=-5.311391205217478E-04 VY= 2.101120140495394E-04 VZ= 3.841932953272348E-05
2455667.500000000 = A.D. 2011-Apr-16 00:00:00.0000 TDB 
 X =-2.386208372650831E-03 Y = 2.597369098004164E-04 Z =-1.188564607037550E-04
 VX=-3.556324911904664E-05 VY=-5.791650834001397E-04 VZ=-2.493600908691225E-04
2455675.500000000 = A.D. 2011-Apr-24 00:00:00.0000 TDB 
 X = 9.026552435191575E-04 Y =-2.272766113046628E-03 Z =-8.750126053663597E-04
 VX= 5.557230711393504E-04 VY= 1.336434296618549E-04 VZ= 1.105438196514328E-04
2455683.500000000 = A.D. 2011-May-02 00:00:00.0000 TDB 
 X = 2.402453399208130E-03 Y = 1.034549850450476E-03 Z = 6.700337372798500E-04
 VX=-2.629668898149105E-04 VY= 4.686133366312074E-04 VZ= 1.724287300548517E-04
